ONEWEB-0578             
1 56067U 23043X   25042.89364329 -.00000038  00000+0 -12417-3 0  9993
2 56067  87.9348 341.6874 0001749  75.0526 285.0801 13.21826430 93460
ONEWEB-0579             
1 56068U 23043Y   25042.88418676 -.00000020  00000+0 -79275-4 0  9995
2 56068  87.9346 341.6792 0001884  91.2137 268.9212 13.21824660 93476
ONEWEB-0581             
1 56069U 23043Z   25042.81786671 -.00000422  00000+0 -11363-2 0  9990
2 56069  87.9126 326.5214 0001309  88.9022 271.2259 13.16593351 94431
ONEWEB-0609             
1 56070U 23043AA  25042.91820738 -.00000007  00000+0 -53081-4 0  9990
2 56070  87.9117 356.8484 0001924  80.8676 279.2672 13.15550443 91974
ONEWEB-0613             
1 56071U 23043AB  25042.91346218 -.00000012  00000+0 -67029-4 0  9990
2 56071  87.9120 356.8550 0001977  89.0349 271.1008 13.15546734 91971
ONEWEB-0630             
1 56072U 23043AC  25042.90870379 -.00000110  00000+0 -32683-3 0  9996
2 56072  87.9119 356.8383 0002048  87.7909 272.3456 13.15549116 91967
ONEWEB-0632             
1 56073U 23043AD  25042.90394933 -.00000145  00000+0 -42028-3 0  9996
2 56073  87.9120 356.8586 0001613  86.9350 273.1965 13.15545162 91964
ONEWEB-0633             
1 56074U 23043AE  25042.89760868 -.00000142  00000+0 -41079-3 0  9991
2 56074  87.9114 356.8325 0002263  86.8012 273.3377 13.15545737 91940
